COMMENT,ORIGINATOR,NORAD_CAT_ID,OBJECT_NAME,OBJECT_TYPE,CLASSIFICATION_TYPE,INTLDES,EPOCH,EPOCH_MICROSECONDS,MEAN_MOTION,ECCENTRICITY,INCLINATION,RA_OF_ASC_NODE,ARG_OF_PERICENTER,MEAN_ANOMALY,EPHEMERIS_TYPE,ELEMENT_SET_NO,REV_AT_EPOCH,BSTAR,MEAN_MOTION_DOT,MEAN_MOTION_DDOT,FILE,TLE_LINE0,TLE_LINE1,TLE_LINE2,OBJECT_ID,OBJECT_NUMBER,SEMIMAJOR_AXIS,PERIOD,APOGEE,PERIGEE
"GENERATED VIA SPACETRACK.ORG API","JSPOC","39249","GONETS M 05","PAYLOAD","U","13048A","2016-01-11 08:23:09","357504","12.42880052","0.0015609","82.4794","198.4232","240.5254","119.4272","0","999","10575","0.0001","2.4e-07","0","1978905","0 GONETS M 05","1 39249U 13048A   16011.34941386  .00000024  00000-0  10000-3 0  9990","2 39249  82.4794 198.4232 0015609 240.5254 119.4272 12.42880052105751","2013-048A","39249","7872.554","115.859","1506.708","1482.131"
"GENERATED VIA SPACETRACK.ORG API","JSPOC","38331","JCSAT 13","PAYLOAD","U","12023A","2016-01-11 08:23:15","213696","1.00269907","0.0002349","0.0269","26.1471","283.2899","50.5423","0","999","1337","0","-3.55e-06","0","1979079","0 JCSAT 13","1 38331U 12023A   16011.34948164 -.00000355  00000-0  00000+0 0  9997","2 38331   0.0269  26.1471 0002349 283.2899  50.5423  1.00269907 13374","2012-023A","38331","42165.258","1436.123","35797.028","35777.218"
"GENERATED VIA SPACETRACK.ORG API","JSPOC","38331","JCSAT 13","PAYLOAD","U","12023A","2016-01-11 08:23:15","256032","1.00269851","0.0002362","0.0269","26.6876","283.7686","49.5232","0","999","1333","0","-3.55e-06","0","1979502","0 JCSAT 13","1 38331U 12023A   16011.34948213 -.00000355 +00000-0 +00000-0 0  9993","2 38331 000.0269 026.6876 0002362 283.7686 049.5232 01.00269851013332","2012-023A","38331","42165.274","1436.124","35797.098","35777.179"
"GENERATED VIA SPACETRACK.ORG API","JSPOC","38331","JCSAT 13","PAYLOAD","U","12023A","2016-01-11 08:23:16","20672","1.00270213","0.0002123","0.0264","23.2051","289.8071","46.9701","0","999","1337","0","-3.55e-06","0","1978956","0 JCSAT 13","1 38331U 12023A   16011.34949098 -.00000355  00000-0  00000+0 0  9994","2 38331   0.0264  23.2051 0002123 289.8071  46.9701  1.00270213 13375","2012-023A","38331","42165.172","1436.119","35795.989","35778.085"
"GENERATED VIA SPACETRACK.ORG API","JSPOC","27611","PLEM COVER","PAYLOAD","U","02058G","2016-01-11 08:23:39","607872","15.0433499","0.0030035","64.5451","308.8078","247.312","112.482","0","999","70883","0.00031108","4.219e-05","0","1978948","0 PLEM COVER","1 27611U 02058G   16011.34976398  .00004219  00000-0  31108-3 0  9992","2 27611  64.5451 308.8078 0030035 247.3120 112.4820 15.04334990708830","2002-058G","27611","6931.684","95.723","574.369","532.730"
"GENERATED VIA SPACETRACK.ORG API","JSPOC","10722","ATLAS CENTAUR R/B","ROCKET BODY","U","78002B","2016-01-11 08:23:44","100672","2.21783963","0.7156523","21.2329","207.3999","6.9934","134.3779","0","999","20327","-0.0020118","-7.9e-07","0","1978928","0 ATLAS CENTAUR R/B","1 10722U 78002B   16011.34981598 -.00000079  00000-0 -20118-2 0  9997","2 10722  21.2329 207.3999 7156523   6.9934 134.3779  2.21783963203271","1978-002B","10722","24837.911","649.280","36235.085","684.468"
"GENERATED VIA SPACETRACK.ORG API","JSPOC","25023","MAQSAT H","PAYLOAD","U","97066A","2016-01-11 08:23:45","868416","3.09983304","0.6499103","7.8819","310.591","278.7336","273.3256","0","999","20565","-0.00089631","-1.35e-06","0","1979502","0 MAQSAT H","1 25023U 97066A   16011.34983644 -.00000135 +00000-0 -89631-3 0  9991","2 25023 007.8819 310.5910 6499103 278.7336 273.3256 03.09983304205659","1997-066A","25023","19869.013","464.541","26403.955","577.801"
"GENERATED VIA SPACETRACK.ORG API","JSPOC","21814","INMARSAT 2-F3","PAYLOAD","U","91084B","2016-01-11 08:23:49","874784","0.96062552","0.0009065","10.6908","38.609","346.8924","62.8267","0","999","8664","0","-1.01e-06","0","1979020","0 INMARSAT 2-F3","1 21814U 91084B   16011.34988281 -.00000101  00000-0  00000+0 0  9992","2 21814  10.6908  38.6090 0009065 346.8924  62.8267  0.96062552 86644","1991-084B","21814","43387.613","1499.023","37048.809","36970.147"
"GENERATED VIA SPACETRACK.ORG API","JSPOC","25327","COSMOS 2351","PAYLOAD","U","98027A","2016-01-11 08:23:52","2816","2.00801485","0.6364439","66.5999","136.642","217.251","295.5522","0","999","12952","0","8.1e-06","0","1978907","0 COSMOS 2351","1 25327U 98027A   16011.34990744  .00000810  00000-0  00000+0 0  9992","2 25327  66.5999 136.6420 6364439 217.2510 295.5522  2.00801485129527","1998-027A","25327","26539.367","717.126","37052.050","3270.413"
"GENERATED VIA SPACETRACK.ORG API","JSPOC","21394","AURORA 2 R/B(PAM-D)","ROCKET BODY","U","91037C","2016-01-11 08:24:07","854624","2.22015486","0.6847663","24.1968","34.6063","246.1823","295.0105","0","999","19977","0","-1.57e-06","0","1978942","0 AURORA 2 R/B(PAM-D)","1 21394U 91037C   16011.35009091 -.00000157  00000-0  00000+0 0  9998","2 21394  24.1968  34.6063 6847663 246.1823 295.0105  2.22015486199774","1991-037C","21394","24820.641","648.603","35438.844","1446.167"
"GENERATED VIA SPACETRACK.ORG API","JSPOC","26064","FALCONSAT","PAYLOAD","U","00004D","2016-01-11 08:24:26","504928","14.3606074","0.0037802","100.1958","269.4346","356.4831","116.4212","0","999","83606","3.27e-05","3.7e-07","0","1978901","0 FALCONSAT","1 26064U 00004D   16011.35030677  .00000037  00000-0  32700-4 0  9998","2 26064 100.1958 269.4346 0037802 356.4831 116.4212 14.36060740836069","2000-004D","26064","7149.680","100.274","798.572","744.518"
"GENERATED VIA SPACETRACK.ORG API","JSPOC","10684","OPS 5111 (NAVSTAR 1)","PAYLOAD","U","78020A","2016-01-11 08:24:44","370720","1.98070607","0.0078157","62.7659","168.5226","193.7417","257.8753","0","999","26095","0","7.3e-07","0","1978899","0 OPS 5111 (NAVSTAR 1)","1 10684U 78020A   16011.35051355  .00000073  00000-0  00000+0 0  9991","2 10684  62.7659 168.5226 0078157 193.7417 257.8753  1.98070607260953","1978-020A","10684","26782.749","727.013","20613.940","20195.288"
"GENERATED VIA SPACETRACK.ORG API","JSPOC","20599","SL-6 R/B(2)","ROCKET BODY","U","90040D","2016-01-11 08:25:03","385632","2.03476802","0.5901618","69.2574","314.1501","149.5158","264.7974","0","999","19104","0","3.82e-06","0","1979502","0 SL-6 R/B(2)","1 20599U 90040D   16011.35073363 +.00000382 +00000-0 +00000-0 0  9990","2 20599 069.2574 314.1501 5901618 149.5158 264.7974 02.03476802191044","1990-040D","20599","26306.227","707.697","35453.023","4403.161"
"GENERATED VIA SPACETRACK.ORG API","JSPOC","12156","MOLNIYA 1-49","PAYLOAD","U","81009A","2016-01-11 08:25:18","343200","2.05692105","0.6752259","64.4879","134.9951","252.823","147.6196","0","999","17320","0","5.33e-06","0","1978936","0 MOLNIYA 1-49","1 12156U 81009A   16011.35090675  .00000533  00000-0  00000+0 0  9997","2 12156  64.4879 134.9951 6752259 252.8230 147.6196  2.05692105173202","1981-009A","12156","26117.008","700.075","37373.753","2103.992"
"GENERATED VIA SPACETRACK.ORG API","JSPOC","37398","MERIDIAN 4","PAYLOAD","U","11018A","2016-01-11 08:25:23","803680","2.00594348","0.6792765","64.5093","216.7487","273.8478","191.107","0","999","3435","0.0001","1.84e-06","0","1978876","0 MERIDIAN 4","1 37398U 11018A   16011.35096995  .00000184  00000-0  10000-3 0  9993","2 37398  64.5093 216.7487 6792765 273.8478 191.1070  2.00594348 34354","2011-018A","37398","26557.633","717.866","38219.475","2139.522"
"GENERATED VIA SPACETRACK.ORG API","JSPOC","25506","PEGASUS R/B","ROCKET BODY","U","98060B","2016-01-11 08:25:53","338656","14.45979468","0.0023538","24.9983","8.27","87.3194","48.8729","0","999","91019","2.9985e-05","2.9e-06","0","1979502","0 PEGASUS R/B","1 25506U 98060B   16011.35131179 +.00000290 +00000-0 +29985-4 0  9998","2 25506 024.9983 008.2700 0023538 087.3194 048.8729 14.45979468910190","1998-060B","25506","7116.947","99.586","755.564","722.060"
"GENERATED VIA SPACETRACK.ORG API","JSPOC","16968","SL-12 R/B(2)","ROCKET BODY","U","86071F","2016-01-11 08:25:57","529056","2.13266667","0.0020556","64.0978","202.584","213.1563","213.3612","0","999","22841","0","9.6e-07","0","1978910","0 SL-12 R/B(2)","1 16968U 86071F   16011.35136029  .00000096  00000-0  00000+0 0  9994","2 16968  64.0978 202.5840 0020556 213.1563 213.3612  2.13266667228410","1986-071F","16968","25494.892","675.211","19169.164","19064.350"
"GENERATED VIA SPACETRACK.ORG API","JSPOC","14189","OPS 9794 (NAVSTAR 8)","PAYLOAD","U","83072A","2016-01-11 08:26:12","840864","1.91718986","0.014907","62.1379","179.2214","34.6598","14.585","0","999","15368","0","8.7e-07","0","1979502","0 OPS 9794 (NAVSTAR 8)","1 14189U 83072A   16011.35153751 +.00000087 +00000-0 +00000-0 0  9997","2 14189 062.1379 179.2214 0149070 034.6598 014.5850 01.91718986153681","1983-072A","14189","27371.068","751.099","21400.954","20584.913"
"GENERATED VIA SPACETRACK.ORG API","JSPOC","25623","GLOBALSTAR M036","PAYLOAD","U","99004C","2016-01-11 08:26:36","172320","11.86529099","0.001225","51.9987","319.5686","298.9154","230.0767","0","999","77003","0.0011727","-2e-08","0","1978911","0 GLOBALSTAR M036","1 25623U 99004C   16011.35180755 -.00000002  00000-0  11727-2 0  9996","2 25623  51.9987 319.5686 0012250 298.9154 230.0767 11.86529099770037","1999-004C","25623","8119.879","121.362","1751.691","1731.797"
"GENERATED VIA SPACETRACK.ORG API","JSPOC","26115","DELTA 2 R/B(2)","ROCKET BODY","U","00017C","2016-01-11 08:26:51","348480","1.68203035","0.7596736","94.0289","245.4807","10.4458","359.3224","0","999","9700","0.030589","5.13e-06","0","1978937","0 DELTA 2 R/B(2)","1 26115U 00017C   16011.35198320  .00000513  00000-0  30589-1 0  9998","2 26115  94.0289 245.4807 7596736  10.4458 359.3224  1.68203035 97006","2000-017C","26115","29866.153","856.108","46176.546","799.490"
